{
  "type": "FeatureCollection",
  "features": [
    {
      "type": "Feature",
      "properties": {
        "norad_id": 58701,
        "name": "TIANMU-1 16",
        "group": "weather",
        "lat": -16.946451847525942,
        "lon": 159.851754965153,
        "alt_km": 494.57702340994365,
        "timestamp": "2025-12-02T15:49:06.826751+00:00",
        "meta_object_name": "TIANMU-1 16",
        "meta_object_id": "2024-004B",
        "meta_epoch": "2025-11-28T17:21:14.562144",
        "meta_mean_motion": 15.24146454,
        "meta_eccentricity": 0.00054689,
        "meta_inclination": 97.457,
        "meta_ra_of_asc_node": 153.6495,
        "meta_arg_of_pericenter": 351.9748,
        "meta_mean_anomaly": 8.1401,
        "meta_ephemeris_type": 0,
        "meta_classification_type": "U",
        "meta_norad_cat_id": 58701,
        "meta_element_set_no": 999,
        "meta_rev_at_epoch": 10521,
        "meta_bstar": 5.4123761e-05,
        "meta_mean_motion_dot": 1.245e-05,
        "meta_mean_motion_ddot": 0,
        "tle_line1": "1 58701U 24004B   25332.72308521  .00001245  00000+0  54124-4 0  9995",
        "tle_line2": "2 58701  97.4570 153.6495 0005468 351.9748   8.1401 15.24146454105217"
      },
      "geometry": {
        "type": "Point",
        "coordinates": [
          159.851754965153,
          -16.946451847525942
        ]
      }
    },
    {
      "type": "Feature",
      "properties": {
        "norad_id": 58702,
        "name": "TIANMU-1 17",
        "group": "weather",
        "lat": 65.26501022041586,
        "lon": 141.44533428611626,
        "alt_km": 486.3763540282971,
        "timestamp": "2025-12-02T15:49:06.826761+00:00",
        "meta_object_name": "TIANMU-1 17",
        "meta_object_id": "2024-004C",
        "meta_epoch": "2025-12-02T07:39:03.444768",
        "meta_mean_motion": 15.24256167,
        "meta_eccentricity": 0.00044113,
        "meta_inclination": 97.4601,
        "meta_ra_of_asc_node": 157.6317,
        "meta_arg_of_pericenter": 342.9888,
        "meta_mean_anomaly": 17.12,
        "meta_ephemeris_type": 0,
        "meta_classification_type": "U",
        "meta_norad_cat_id": 58702,
        "meta_element_set_no": 999,
        "meta_rev_at_epoch": 10575,
        "meta_bstar": 0.00035749813,
        "meta_mean_motion_dot": 8.658e-05,
        "meta_mean_motion_ddot": 0,
        "tle_line1": "1 58702U 24004C   25336.31878987  .00008658  00000+0  35750-3 0  9991",
        "tle_line2": "2 58702  97.4601 157.6317 0004411 342.9888  17.1200 15.24256167105751"
      },
      "geometry": {
        "type": "Point",
        "coordinates": [
          141.44533428611626,
          65.26501022041586
        ]
      }
    },
    {
      "type": "Feature",
      "properties": {
        "norad_id": 58703,
        "name": "TIANMU-1 18",
        "group": "weather",
        "lat": 21.46389882616296,
        "lon": -18.88253436487941,
        "alt_km": 495.53446949420595,
        "timestamp": "2025-12-02T15:49:06.826774+00:00",
        "meta_object_name": "TIANMU-1 18",
        "meta_object_id": "2024-004D",
        "meta_epoch": "2025-12-02T07:14:55.682304",
        "meta_mean_motion": 15.24249023,
        "meta_eccentricity": 0.00037711,
        "meta_inclination": 97.4618,
        "meta_ra_of_asc_node": 157.8081,
        "meta_arg_of_pericenter": 344.7155,
        "meta_mean_anomaly": 15.3968,
        "meta_ephemeris_type": 0,
        "meta_classification_type": "U",
        "meta_norad_cat_id": 58703,
        "meta_element_set_no": 999,
        "meta_rev_at_epoch": 10575,
        "meta_bstar": 0.00033015453,
        "meta_mean_motion_dot": 7.987e-05,
        "meta_mean_motion_ddot": 0,
        "tle_line1": "1 58703U 24004D   25336.30203336  .00007987  00000+0  33015-3 0  9997",
        "tle_line2": "2 58703  97.4618 157.8081 0003771 344.7155  15.3968 15.24249023105759"
      },
      "geometry": {
        "type": "Point",
        "coordinates": [
          -18.88253436487941,
          21.46389882616296
        ]
      }
    },
    {
      "type": "Feature",
      "properties": {
        "norad_id": 58990,
        "name": "INSAT-3DS",
        "group": "weather",
        "lat": 0.02810458429274219,
        "lon": 31.136255509917127,
        "alt_km": 35791.6111423815,
        "timestamp": "2025-12-02T15:49:06.826785+00:00",
        "meta_object_name": "INSAT-3DS",
        "meta_object_id": "2024-033A",
        "meta_epoch": "2025-12-02T02:11:22.197696",
        "meta_mean_motion": 1.00269802,
        "meta_eccentricity": 0.00015795,
        "meta_inclination": 0.0134,
        "meta_ra_of_asc_node": 265.382,
        "meta_arg_of_pericenter": 348.0562,
        "meta_mean_anomaly": 292.7221,
        "meta_ephemeris_type": 0,
        "meta_classification_type": "U",
        "meta_norad_cat_id": 58990,
        "meta_element_set_no": 999,
        "meta_rev_at_epoch": 4509,
        "meta_bstar": 0,
        "meta_mean_motion_dot": -1.35e-06,
        "meta_mean_motion_ddot": 0,
        "tle_line1": "1 58990U 24033A   25336.09122914 -.00000135  00000+0  00000+0 0  9998",
        "tle_line2": "2 58990   0.0134 265.3820 0001579 348.0562 292.7221  1.00269802 45098"
      },
      "geometry": {
        "type": "Point",
        "coordinates": [
          31.136255509917127,
          0.02810458429274219
        ]
      }
    },
    {
      "type": "Feature",
      "properties": {
        "norad_id": 59051,
        "name": "METEOR-M2 4",
        "group": "weather",
        "lat": 65.48242887825906,
        "lon": -85.82980307059374,
        "alt_km": 806.6824075289123,
        "timestamp": "2025-12-02T15:49:06.826796+00:00",
        "meta_object_name": "METEOR-M2 4",
        "meta_object_id": "2024-039A",
        "meta_epoch": "2025-12-02T07:03:50.524992",
        "meta_mean_motion": 14.22398651,
        "meta_eccentricity": 0.00075921,
        "meta_inclination": 98.675,
        "meta_ra_of_asc_node": 293.3678,
        "meta_arg_of_pericenter": 27.5103,
        "meta_mean_anomaly": 332.6476,
        "meta_ephemeris_type": 0,
        "meta_classification_type": "U",
        "meta_norad_cat_id": 59051,
        "meta_element_set_no": 999,
        "meta_rev_at_epoch": 9127,
        "meta_bstar": 4.7401353e-05,
        "meta_mean_motion_dot": 6.2e-07,
        "meta_mean_motion_ddot": 0,
        "tle_line1": "1 59051U 24039A   25336.29433478  .00000062  00000+0  47401-4 0  9994",
        "tle_line2": "2 59051  98.6750 293.3678 0007592  27.5103 332.6476 14.22398651 91277"
      },
      "geometry": {
        "type": "Point",
        "coordinates": [
          -85.82980307059374,
          65.48242887825906
        ]
      }
    },
    {
      "type": "Feature",
      "properties": {
        "norad_id": 60133,
        "name": "GOES 19",
        "group": "weather",
        "lat": 0.009740826671378237,
        "lon": -126.17936820352185,
        "alt_km": 35783.97454472879,
        "timestamp": "2025-12-02T15:49:06.826808+00:00",
        "meta_object_name": "GOES 19",
        "meta_object_id": "2024-119A",
        "meta_epoch": "2025-12-02T04:54:21.818880",
        "meta_mean_motion": 1.00271361,
        "meta_eccentricity": 0.0001197,
        "meta_inclination": 0.014,
        "meta_ra_of_asc_node": 135.3253,
        "meta_arg_of_pericenter": 162.0048,
        "meta_mean_anomaly": 132.3957,
        "meta_ephemeris_type": 0,
        "meta_classification_type": "U",
        "meta_norad_cat_id": 60133,
        "meta_element_set_no": 999,
        "meta_rev_at_epoch": 498,
        "meta_bstar": 0,
        "meta_mean_motion_dot": -2.27e-06,
        "meta_mean_motion_ddot": 0,
        "tle_line1": "1 60133U 24119A   25336.20441920 -.00000227  00000+0  00000+0 0  9991",
        "tle_line2": "2 60133   0.0140 135.3253 0001197 162.0048 132.3957  1.00271361  4983"
      },
      "geometry": {
        "type": "Point",
        "coordinates": [
          -126.17936820352185,
          0.009740826671378237
        ]
      }
    },
    {
      "type": "Feature",
      "properties": {
        "norad_id": 65815,
        "name": "FENGYUN 3H",
        "group": "weather",
        "lat": 35.83167499280304,
        "lon": -89.84653330869787,
        "alt_km": 822.7815950241702,
        "timestamp": "2025-12-02T15:49:06.826819+00:00",
        "meta_object_name": "FENGYUN 3H",
        "meta_object_id": "2025-219A",
        "meta_epoch": "2025-12-02T05:30:03.045888",
        "meta_mean_motion": 14.19899818,
        "meta_eccentricity": 6.507e-05,
        "meta_inclination": 98.6568,
        "meta_ra_of_asc_node": 276.0486,
        "meta_arg_of_pericenter": 68.8978,
        "meta_mean_anomaly": 291.2269,
        "meta_ephemeris_type": 0,
        "meta_classification_type": "U",
        "meta_norad_cat_id": 65815,
        "meta_element_set_no": 999,
        "meta_rev_at_epoch": 943,
        "meta_bstar": 8.3120108e-05,
        "meta_mean_motion_dot": 1.33e-06,
        "meta_mean_motion_ddot": 0,
        "tle_line1": "1 65815U 25219A   25336.22920192  .00000133  00000+0  83120-4 0  9994",
        "tle_line2": "2 65815  98.6568 276.0486 0000650  68.8978 291.2269 14.19899818  9434"
      },
      "geometry": {
        "type": "Point",
        "coordinates": [
          -89.84653330869787,
          35.83167499280304
        ]
      }
    }
  ]
}